[{"OBJECT_NAME":"LAPAN-A3","OBJECT_ID":"2016-040E","EPOCH":"2026-03-09T23:01:57.724896","MEAN_MOTION":15.3238951,"ECCENTRICITY":0.00109839,"INCLINATION":97.1488,"RA_OF_ASC_NODE":68.4254,"ARG_OF_PERICENTER":22.062,"MEAN_ANOMALY":338.1093,"EPHEMERIS_TYPE":0,"CLASSIFICATION_TYPE":"U","NORAD_CAT_ID":41603,"ELEMENT_SET_NO":999,"REV_AT_EPOCH":53961,"BSTAR":0.00017567445,"MEAN_MOTION_DOT":5.428e-5,"MEAN_MOTION_DDOT":0},{"OBJECT_NAME":"STARLINK-35230","OBJECT_ID":"2025-212F","EPOCH":"2026-03-09T22:51:14.696352","MEAN_MOTION":15.30217637,"ECCENTRICITY":8.953e-5,"INCLINATION":53.1624,"RA_OF_ASC_NODE":344.4629,"ARG_OF_PERICENTER":105.8434,"MEAN_ANOMALY":254.2666,"EPHEMERIS_TYPE":0,"CLASSIFICATION_TYPE":"U","NORAD_CAT_ID":65681,"ELEMENT_SET_NO":999,"REV_AT_EPOCH":2729,"BSTAR":0.0014033284,"MEAN_MOTION_DOT":0.00041458,"MEAN_MOTION_DDOT":0}]
